start=new Date('2022-08-17T00:00:00.000Z').valueOf();
sats=[{"PERIAPSIS":"546.178","DECAY_DATE":null,"MEAN_MOTION":"15.06394994","MEAN_MOTION_DOT":"0.00002675","TLE_LINE2":"2 48645  53.0546 203.4534 0001517  64.5266 295.5880 15.06394994 67578","SITE":"AFETR","FILE":"3537973","APOAPSIS":"548.279","TLE_LINE1":"1 48645U 21044H   22228.37716999  .00002675  00000-0  19844-3 0  9994","RCS_SIZE":"LARGE","GP_ID":"210336436","MEAN_ELEMENT_THEORY":"SGP4","NORAD_CAT_ID":"48645","PERIOD":"95.592","ARG_OF_PERICENTER":"64.5266","CLASSIFICATION_TYPE":"U","RA_OF_ASC_NODE":"203.4534","INCLINATION":"53.0546","TIME_SYSTEM":"UTC","OBJECT_TYPE":"PAYLOAD","REV_AT_EPOCH":"6757","CENTER_NAME":"EARTH","MEAN_MOTION_DDOT":"0.0000000000000","OBJECT_NAME":"STARLINK-2733","REF_FRAME":"TEME","SEMIMAJOR_AXIS":"6925.364","EPOCH":"2022-08-16T09:03:07.487136","MEAN_ANOMALY":"295.5880","EPHEMERIS_TYPE":"0","COUNTRY_CODE":"US","ELEMENT_SET_NO":"999","OBJECT_ID":"2021-044H","ECCENTRICITY":"0.00015170","LAUNCH_DATE":"2021-05-26","BSTAR":"0.00019844000000"},{"ECCENTRICITY":"0.00013000","LAUNCH_DATE":"2021-05-26","BSTAR":"0.00018283000000","EPOCH":"2022-08-16T21:42:07.915392","SEMIMAJOR_AXIS":"6925.326","REF_FRAME":"TEME","MEAN_ANOMALY":"276.7018","EPHEMERIS_TYPE":"0","ELEMENT_SET_NO":"999","COUNTRY_CODE":"US","OBJECT_ID":"2021-044J","TIME_SYSTEM":"UTC","CENTER_NAME":"EARTH","REV_AT_EPOCH":"6765","OBJECT_TYPE":"PAYLOAD","MEAN_MOTION_DDOT":"0.0000000000000","OBJECT_NAME":"STARLINK-2732","INCLINATION":"53.0548","RA_OF_ASC_NODE":"201.0718","NORAD_CAT_ID":"48646","MEAN_ELEMENT_THEORY":"SGP4","PERIOD":"95.592","CLASSIFICATION_TYPE":"U","ARG_OF_PERICENTER":"83.4119","TLE_LINE1":"1 48646U 21044J   22228.90425828  .00002443  00000-0  18283-3 0  9991","GP_ID":"210366411","RCS_SIZE":"LARGE","TLE_LINE2":"2 48646  53.0548 201.0718 0001300  83.4119 276.7018 15.06407236 67653","SITE":"AFETR","FILE":"3538178","APOAPSIS":"548.092","PERIAPSIS":"546.291","DECAY_DATE":null,"MEAN_MOTION_DOT":"0.00002443","MEAN_MOTION":"15.06407236"},{"PERIAPSIS":"546.116","DECAY_DATE":null,"MEAN_MOTION":"15.06398203","MEAN_MOTION_DOT":"-0.00001123","TLE_LINE2":"2 48647  53.0536 202.2877 0001593  80.2451 279.8718 15.06398203 67618","SITE":"AFETR","APOAPSIS":"548.322","FILE":"3538178","TLE_LINE1":"1 48647U 21044K   22228.63518824 -.00001123  00000-0 -56504-4 0  9996","RCS_SIZE":"LARGE","GP_ID":"210366162","MEAN_ELEMENT_THEORY":"SGP4","NORAD_CAT_ID":"48647","PERIOD":"95.592","ARG_OF_PERICENTER":"80.2451","CLASSIFICATION_TYPE":"U","RA_OF_ASC_NODE":"202.2877","INCLINATION":"53.0536","TIME_SYSTEM":"UTC","OBJECT_TYPE":"PAYLOAD","CENTER_NAME":"EARTH","REV_AT_EPOCH":"6761","MEAN_MOTION_DDOT":"0.0000000000000","OBJECT_NAME":"STARLINK-2691","SEMIMAJOR_AXIS":"6925.354","REF_FRAME":"TEME","EPOCH":"2022-08-16T15:14:40.263936","MEAN_ANOMALY":"279.8718","EPHEMERIS_TYPE":"0","COUNTRY_CODE":"US","OBJECT_ID":"2021-044K","ELEMENT_SET_NO":"999","ECCENTRICITY":"0.00015930","LAUNCH_DATE":"2021-05-26","BSTAR":"-0.00005650400000"},{"COUNTRY_CODE":"US","ELEMENT_SET_NO":"999","OBJECT_ID":"2021-044L","EPHEMERIS_TYPE":"0","SEMIMAJOR_AXIS":"6925.356","MEAN_ANOMALY":"291.4163","REF_FRAME":"TEME","EPOCH":"2022-08-16T21:58:04.915488","BSTAR":"0.00016639000000","LAUNCH_DATE":"2021-05-26","ECCENTRICITY":"0.00016850","INCLINATION":"53.0542","RA_OF_ASC_NODE":"201.1889","OBJECT_NAME":"STARLINK-2521","MEAN_MOTION_DDOT":"0.0000000000000","OBJECT_TYPE":"PAYLOAD","REV_AT_EPOCH":"6765","CENTER_NAME":"EARTH","TIME_SYSTEM":"UTC","RCS_SIZE":"LARGE","GP_ID":"210367413","TLE_LINE1":"1 48648U 21044L   22228.91533467  .00002197  00000-0  16639-3 0  9992","ARG_OF_PERICENTER":"68.7006","CLASSIFICATION_TYPE":"U","PERIOD":"95.592","NORAD_CAT_ID":"48648","MEAN_ELEMENT_THEORY":"SGP4","MEAN_MOTION":"15.06397523","MEAN_MOTION_DOT":"0.00002197","DECAY_DATE":null,"PERIAPSIS":"546.054","APOAPSIS":"548.388","FILE":"3538178","SITE":"AFETR","TLE_LINE2":"2 48648  53.0542 201.1889 0001685  68.7006 291.4163 15.06397523 67658"},{"ECCENTRICITY":"0.00018700","LAUNCH_DATE":"2021-05-26","BSTAR":"0.00003476100000","SEMIMAJOR_AXIS":"6925.352","MEAN_ANOMALY":"295.1717","EPOCH":"2022-08-16T08:47:11.550624","REF_FRAME":"TEME","EPHEMERIS_TYPE":"0","ELEMENT_SET_NO":"999","COUNTRY_CODE":"US","OBJECT_ID":"2021-044M","TIME_SYSTEM":"UTC","REV_AT_EPOCH":"6756","CENTER_NAME":"EARTH","OBJECT_TYPE":"PAYLOAD","MEAN_MOTION_DDOT":"0.0000000000000","OBJECT_NAME":"STARLINK-2673","INCLINATION":"53.0548","RA_OF_ASC_NODE":"203.4912","NORAD_CAT_ID":"48649","MEAN_ELEMENT_THEORY":"SGP4","PERIOD":"95.592","CLASSIFICATION_TYPE":"U","ARG_OF_PERICENTER":"64.9466","TLE_LINE1":"1 48649U 21044M   22228.36610591  .00000236  00000-0  34761-4 0  9995","GP_ID":"210336936","RCS_SIZE":"LARGE","TLE_LINE2":"2 48649  53.0548 203.4912 0001870  64.9466 295.1717 15.06398836 67565","SITE":"AFETR","FILE":"3537973","APOAPSIS":"548.512","PERIAPSIS":"545.922","DECAY_DATE":null,"MEAN_MOTION_DOT":"0.00000236","MEAN_MOTION":"15.06398836"},{"MEAN_ELEMENT_THEORY":"SGP4","NORAD_CAT_ID":"48650","PERIOD":"95.592","CLASSIFICATION_TYPE":"U","ARG_OF_PERICENTER":"73.8495","TLE_LINE1":"1 48650U 21044N   22228.89320250  .00000204  00000-0  32578-4 0  9994","GP_ID":"210365912","RCS_SIZE":"LARGE","TLE_LINE2":"2 48650  53.0538 201.1344 0001387  73.8495 286.2647 15.06394788 67648","SITE":"AFETR","APOAPSIS":"548.190","FILE":"3538178","PERIAPSIS":"546.269","DECAY_DATE":null,"MEAN_MOTION_DOT":"0.00000204","MEAN_MOTION":"15.06394788","ECCENTRICITY":"0.00013870","LAUNCH_DATE":"2021-05-26","BSTAR":"0.00003257800000","REF_FRAME":"TEME","SEMIMAJOR_AXIS":"6925.365","EPOCH":"2022-08-16T21:26:12.696000","MEAN_ANOMALY":"286.2647","EPHEMERIS_TYPE":"0","COUNTRY_CODE":"US","OBJECT_ID":"2021-044N","ELEMENT_SET_NO":"999","TIME_SYSTEM":"UTC","REV_AT_EPOCH":"6764","CENTER_NAME":"EARTH","OBJECT_TYPE":"PAYLOAD","MEAN_MOTION_DDOT":"0.0000000000000","OBJECT_NAME":"STARLINK-2672","RA_OF_ASC_NODE":"201.1344","INCLINATION":"53.0538"},{"OBJECT_TYPE":"PAYLOAD","REV_AT_EPOCH":"6838","CENTER_NAME":"EARTH","TIME_SYSTEM":"UTC","OBJECT_NAME":"STARLINK-2731","MEAN_MOTION_DDOT":"0.0000000000000","RA_OF_ASC_NODE":"204.1263","INCLINATION":"53.0530","LAUNCH_DATE":"2021-05-26","ECCENTRICITY":"0.00014690","BSTAR":"0.00002577600000","EPHEMERIS_TYPE":"0","MEAN_ANOMALY":"296.3706","SEMIMAJOR_AXIS":"6925.379","REF_FRAME":"TEME","EPOCH":"2022-08-16T05:25:30.424512","COUNTRY_CODE":"US","OBJECT_ID":"2021-044P","ELEMENT_SET_NO":"999","TLE_LINE2":"2 48651  53.0530 204.1263 0001469  63.7434 296.3706 15.06389997 68382","FILE":"3537620","APOAPSIS":"548.262","SITE":"AFETR","DECAY_DATE":null,"PERIAPSIS":"546.227","MEAN_MOTION":"15.06389997","MEAN_MOTION_DOT":"0.00000102","MEAN_ELEMENT_THEORY":"SGP4","NORAD_CAT_ID":"48651","ARG_OF_PERICENTER":"63.7434","CLASSIFICATION_TYPE":"U","PERIOD":"95.593","TLE_LINE1":"1 48651U 21044P   22228.22604658  .00000102  00000-0  25776-4 0  9998","RCS_SIZE":"LARGE","GP_ID":"210308230"},{"DECAY_DATE":null,"PERIAPSIS":"546.037","MEAN_MOTION_DOT":"-0.00000832","MEAN_MOTION":"15.06397140","TLE_LINE2":"2 48652  53.0533 203.2553 0001711  71.0840 289.0335 15.06397140 68411","APOAPSIS":"548.407","FILE":"3538028","SITE":"AFETR","TLE_LINE1":"1 48652U 21044Q   22228.42140036 -.00000832  00000-0 -36936-4 0  9998","GP_ID":"210341895","RCS_SIZE":"LARGE","NORAD_CAT_ID":"48652","MEAN_ELEMENT_THEORY":"SGP4","CLASSIFICATION_TYPE":"U","ARG_OF_PERICENTER":"71.0840","PERIOD":"95.592","INCLINATION":"53.0533","RA_OF_ASC_NODE":"203.2553","REV_AT_EPOCH":"6841","CENTER_NAME":"EARTH","OBJECT_TYPE":"PAYLOAD","TIME_SYSTEM":"UTC","OBJECT_NAME":"STARLINK-2727","MEAN_MOTION_DDOT":"0.0000000000000","EPHEMERIS_TYPE":"0","REF_FRAME":"TEME","SEMIMAJOR_AXIS":"6925.357","EPOCH":"2022-08-16T10:06:48.991104","MEAN_ANOMALY":"289.0335","COUNTRY_CODE":"US","ELEMENT_SET_NO":"999","OBJECT_ID":"2021-044Q","LAUNCH_DATE":"2021-05-26","ECCENTRICITY":"0.00017110","BSTAR":"-0.00003693600000"},{"OBJECT_NAME":"STARLINK-2720","MEAN_MOTION_DDOT":"0.0000000000000","OBJECT_TYPE":"PAYLOAD","CENTER_NAME":"EARTH","REV_AT_EPOCH":"6756","TIME_SYSTEM":"UTC","INCLINATION":"53.0536","RA_OF_ASC_NODE":"203.5630","BSTAR":"0.00003406100000","LAUNCH_DATE":"2021-05-26","ECCENTRICITY":"0.00014710","OBJECT_ID":"2021-044R","COUNTRY_CODE":"US","ELEMENT_SET_NO":"999","EPHEMERIS_TYPE":"0","EPOCH":"2022-08-16T08:25:58.103616","SEMIMAJOR_AXIS":"6925.369","REF_FRAME":"TEME","MEAN_ANOMALY":"289.0639","FILE":"3537973","APOAPSIS":"548.252","SITE":"AFETR","TLE_LINE2":"2 48653  53.0536 203.5630 0001471  71.0510 289.0639 15.06393426 67566","MEAN_MOTION":"15.06393426","MEAN_MOTION_DOT":"0.00000226","DECAY_DATE":null,"PERIAPSIS":"546.215","ARG_OF_PERICENTER":"71.0510","CLASSIFICATION_TYPE":"U","PERIOD":"95.593","NORAD_CAT_ID":"48653","MEAN_ELEMENT_THEORY":"SGP4","RCS_SIZE":"LARGE","GP_ID":"210336437","TLE_LINE1":"1 48653U 21044R   22228.35136694  .00000226  00000-0  34061-4 0  9998"},{"RCS_SIZE":"LARGE","GP_ID":"210337688","TLE_LINE1":"1 48654U 21044S   22228.34767830 -.00000685  00000-0 -27108-4 0  9995","PERIOD":"95.592","ARG_OF_PERICENTER":"68.7086","CLASSIFICATION_TYPE":"U","MEAN_ELEMENT_THEORY":"SGP4","NORAD_CAT_ID":"48654","MEAN_MOTION":"15.06403991","MEAN_MOTION_DOT":"-0.00000685","PERIAPSIS":"546.077","DECAY_DATE":null,"SITE":"AFETR","APOAPSIS":"548.325","FILE":"3537973","TLE_LINE2":"2 48654  53.0552 203.5835 0001623  68.7086 291.4076 15.06403991 67563","OBJECT_ID":"2021-044S","COUNTRY_CODE":"US","ELEMENT_SET_NO":"999","EPOCH":"2022-08-16T08:20:39.405120","SEMIMAJOR_AXIS":"6925.336","REF_FRAME":"TEME","MEAN_ANOMALY":"291.4076","EPHEMERIS_TYPE":"0","BSTAR":"-0.00002710800000","ECCENTRICITY":"0.00016230","LAUNCH_DATE":"2021-05-26","RA_OF_ASC_NODE":"203.5835","INCLINATION":"53.0552","MEAN_MOTION_DDOT":"0.0000000000000","OBJECT_NAME":"STARLINK-2651","TIME_SYSTEM":"UTC","OBJECT_TYPE":"PAYLOAD","REV_AT_EPOCH":"6756","CENTER_NAME":"EARTH"}];
